0 THOR ABLESTAR DEB
1 00262U 61015CJ  13282.33508359  .00001850  00000-0  63964-3 0  1037
2 00262 066.4689 345.5854 0074267 038.3157 322.3186 14.36469494689950
0 THOR ABLESTAR DEB
1 00262U 61015CJ  13283.65794590  .00001678  00000-0  58257-3 0  1045
2 00262 066.4687 342.0557 0074374 037.3259 323.2975 14.36472811690147
0 THOR ABLESTAR DEB
1 00262U 61015CJ  13286.51252594  .00001971  00000-0  67931-3 0  1063
2 00262 066.4696 334.4414 0074433 035.3175 325.2822 14.36479694690559
0 THOR ABLESTAR DEB
1 00262U 61015CJ  13287.55688078  .00002406  00000-0  82218-3 0  1078
2 00262 066.4680 331.6519 0074700 034.4525 326.1384 14.36485985690703
0 THOR ABLESTAR DEB
1 00262U 61015CJ  13289.15821540  .00002970  00000-0  10077-2 0  1089
2 00262 066.4687 327.3816 0074657 033.3623 327.2148 14.36494270690932
0 THOR ABLESTAR DEB
1 00262U 61015CJ  13290.48105002  .00002702  00000-0  91916-3 0  1091
2 00262 066.4684 323.8514 0074782 032.3772 328.1883 14.36500638691122
0 THOR ABLESTAR DEB
1 00262U 61015CJ  13291.80387793  .00002759  00000-0  93786-3 0  1108
2 00262 066.4683 320.3211 0074907 031.3993 329.1546 14.36505779691319
0 THOR ABLESTAR DEB
1 00262U 61015CJ  13293.12670028  .00003185  00000-0  10777-2 0  1114
2 00262 066.4684 316.7906 0075020 030.4381 330.1041 14.36511583691501
0 THOR ABLESTAR DEB
1 00262U 61015CJ  13294.17102982  .00003344  00000-0  11299-2 0  1127
2 00262 066.4685 314.0035 0075117 029.6788 330.8541 14.36518085691656
0 THOR ABLESTAR DEB
1 00262U 61015CJ  13295.49384050  .00003799  00000-0  12793-2 0  1136
2 00262 066.4687 310.4732 0075268 028.7108 331.8102 14.36525281691846
